[{"OBJECT_NAME":"ONEWEB-0258","OBJECT_ID":"2021-060K","EPOCH":"2026-03-09T22:16:48.513792","MEAN_MOTION":13.16587429,"ECCENTRICITY":0.00015128,"INCLINATION":87.9011,"RA_OF_ASC_NODE":248.5239,"ARG_OF_PERICENTER":93.7316,"MEAN_ANOMALY":266.3988,"EPHEMERIS_TYPE":0,"CLASSIFICATION_TYPE":"U","NORAD_CAT_ID":48976,"ELEMENT_SET_NO":999,"REV_AT_EPOCH":22653,"BSTAR":0.0048981777,"MEAN_MOTION_DOT":1.886e-5,"MEAN_MOTION_DDOT":0},{"OBJECT_NAME":"COSMOS 970 DEB","OBJECT_ID":"1977-121AZ","EPOCH":"2026-03-09T23:54:49.378176","MEAN_MOTION":13.37822393,"ECCENTRICITY":0.01146571,"INCLINATION":65.8316,"RA_OF_ASC_NODE":29.1952,"ARG_OF_PERICENTER":253.4964,"MEAN_ANOMALY":170.233,"EPHEMERIS_TYPE":0,"CLASSIFICATION_TYPE":"U","NORAD_CAT_ID":12942,"ELEMENT_SET_NO":999,"REV_AT_EPOCH":18036,"BSTAR":0.00034410353,"MEAN_MOTION_DOT":1.15e-6,"MEAN_MOTION_DDOT":0}]
